ONEWEB-0018             
1 45434U 20020L   24276.40737084  .00000610  00000+0  16850-2 0  9996
2 45434  87.8939 145.1143 0001667  79.9188 280.2128 13.11416980221009
ONEWEB-0083             
1 45435U 20020M   24277.16017088  .00000563  00000+0  15523-2 0  9999
2 45435  87.8945 144.9470 0001665  75.0638 285.0675 13.11418680221157
ONEWEB-0095             
1 45436U 20020N   24276.61775228  .00000393  00000+0  10723-2 0  9994
2 45436  87.8944 145.0868 0001665  47.5058 312.6210 13.11418207221089
ONEWEB-0092             
1 45437U 20020P   24277.19490938 -.00000364  00000+0 -10630-2 0  9998
2 45437  87.8937 144.9557 0001452  68.5286 291.5997 13.11418388221262
ONEWEB-0085             
1 45438U 20020Q   24276.46670687  .00000414  00000+0  11317-2 0  9996
2 45438  87.8944 145.1088 0001638  80.6975 279.4338 13.11420137221055
ONEWEB-0096             
1 45439U 20020R   24276.39889837  .00000718  00000+0  19902-2 0  9993
2 45439  87.8942 145.0916 0001577  86.0740 274.0569 13.11417947221035
ONEWEB-0037             
1 45440U 20020S   24276.38023647  .00000105  00000+0  25981-3 0  9998
2 45440  87.8938 145.0729 0001505  74.5695 285.5599 13.11420827221060
ONEWEB-0042             
1 45441U 20020T   24276.61746528  .00000376  00000+0  10249-2 0  9995
2 45441  87.8944 145.0612 0001599  79.7396 280.3912 13.11420011221075
